HTV-X1                  
1 66174U 25241A   26083.19239994  .00014323  00000+0  46147-3 0  9990
2 66174  51.6371   3.2073 0007403 227.4114 132.6244 15.32404592 23168
SZ-21 MODULE            
1 66515U 25246C   26082.18487837  .00043706  00000+0  35991-3 0  9995
2 66515  41.4734 120.2206 0000654 218.7155 141.3640 15.69572241 20198
SHENZHOU-22             
1 66645U 25272A   26083.23811462  .00020484  00000+0  23638-3 0  9993
2 66645  41.4662 119.5892 0004823   8.9107 351.1817 15.61417953279106
SOYUZ-MS 28             
1 66664U 25275A   26083.16360592  .00014170  00000+0  26927-3 0  9991
2 66664  51.6345   0.8084 0006267 226.2093 133.8378 15.48514008557713
DUPLEX                  
1 66906U 98067XS  26082.96622369  .00028808  00000+0  39510-3 0  9994
2 66906  51.6299 357.9930 0003139 174.3509 185.7519 15.57109631 17352
ISS OBJECT XT           
1 66907U 98067XT  26083.01619837  .00200709  00000+0  13304-2 0  9992
2 66907  51.6254 352.2978 0005370 171.7670 188.3418 15.74343929 17438
ISS OBJECT XU           
1 66908U 98067XU  26083.01308523  .00206767  00000+0  13578-2 0  9993
2 66908  51.6248 352.2719 0005614 172.3126 187.7961 15.74539149 17436
SILVERSAT               
1 66909U 98067XV  26082.98164823  .00288378  00000+0  15389-2 0  9992
2 66909  51.6221 351.3039 0006229 177.1516 182.9521 15.78994089 17444
ISS OBJECT XW           
1 66910U 98067XW  26082.95577542  .00177198  00000+0  12412-2 0  9998
2 66910  51.6238 352.6360 0005876 171.3926 188.7174 15.73130824 17423
ISS OBJECT XX           
1 66911U 98067XX  26083.00449696  .00392372  00000+0  16127-2 0  9994
2 66911  51.6198 349.9255 0007864 180.6946 179.4048 15.84339121 17458
ISS OBJECT XY           
1 66912U 98067XY  26083.01197627  .00103447  00000+0  96251-3 0  9990
2 66912  51.6277 354.5382 0004029 172.0225 188.0836 15.66564755 17392
KNACKSAT-2              
1 67683U 98067XZ  26083.01837906  .00038683  00000+0  61191-3 0  9991
2 67683  51.6326   0.5913 0009822 237.4563 122.5479 15.53013062  7018
